[{"OBJECT_NAME":"STARLINK-3962","OBJECT_ID":"2022-053BE","EPOCH":"2026-03-09T12:07:45.523200","MEAN_MOTION":15.08836986,"ECCENTRICITY":0.00018311,"INCLINATION":53.2174,"RA_OF_ASC_NODE":134.9364,"ARG_OF_PERICENTER":105.0898,"MEAN_ANOMALY":255.0297,"EPHEMERIS_TYPE":0,"CLASSIFICATION_TYPE":"U","NORAD_CAT_ID":52708,"ELEMENT_SET_NO":999,"REV_AT_EPOCH":21149,"BSTAR":-9.9454038e-5,"MEAN_MOTION_DOT":-1.87e-5,"MEAN_MOTION_DDOT":0},{"OBJECT_NAME":"DELTA 1 DEB","OBJECT_ID":"1972-058EG","EPOCH":"2026-03-09T15:29:57.375744","MEAN_MOTION":14.93143945,"ECCENTRICITY":0.0071537,"INCLINATION":98.4418,"RA_OF_ASC_NODE":299.7647,"ARG_OF_PERICENTER":185.1751,"MEAN_ANOMALY":174.8735,"EPHEMERIS_TYPE":0,"CLASSIFICATION_TYPE":"U","NORAD_CAT_ID":8314,"ELEMENT_SET_NO":999,"REV_AT_EPOCH":83297,"BSTAR":0.00043799,"MEAN_MOTION_DOT":4.734e-5,"MEAN_MOTION_DDOT":0}]
